CCSDS_OMM_VERS = 2.0
CREATION_DATE  = 
ORIGINATOR     = 

OBJECT_NAME    = STARLINK-35563
OBJECT_ID      = 2025-236B
CENTER_NAME    = EARTH
REF_FRAME      = TEME
TIME_SYSTEM    = UTC
MEAN_ELEMENT_THEORY = SGP/SGP4

EPOCH          = 2025-11-04T06:00:02.000160
MEAN_MOTION    = 15.74157051
ECCENTRICITY   = .00010427
INCLINATION    = 53.1581
RA_OF_ASC_NODE = 331.2049
ARG_OF_PERICENTER = 79.8682
MEAN_ANOMALY   = 292.6314

EPHEMERIS_TYPE = 0
CLASSIFICATION_TYPE = U
NORAD_CAT_ID   = 66087
ELEMENT_SET_NO = 999
REV_AT_EPOCH   = 363
BSTAR          = .12622232E-3
MEAN_MOTION_DOT = .1787E-3
MEAN_MOTION_DDOT = 0

CCSDS_OMM_VERS = 2.0
CREATION_DATE  = 
ORIGINATOR     = 

OBJECT_NAME    = STARLINK-35461
OBJECT_ID      = 2025-236C
CENTER_NAME    = EARTH
REF_FRAME      = TEME
TIME_SYSTEM    = UTC
MEAN_ELEMENT_THEORY = SGP/SGP4

EPOCH          = 2025-11-04T06:00:02.000160
MEAN_MOTION    = 15.74199019
ECCENTRICITY   = .00010078
INCLINATION    = 53.1581
RA_OF_ASC_NODE = 331.1970
ARG_OF_PERICENTER = 101.9905
MEAN_ANOMALY   = 274.3351

EPHEMERIS_TYPE = 0
CLASSIFICATION_TYPE = U
NORAD_CAT_ID   = 66088
ELEMENT_SET_NO = 999
REV_AT_EPOCH   = 363
BSTAR          = -.54351289E-3
MEAN_MOTION_DOT = -.79514E-3
MEAN_MOTION_DDOT = 0

CCSDS_OMM_VERS = 2.0
CREATION_DATE  = 
ORIGINATOR     = 

OBJECT_NAME    = STARLINK-35571
OBJECT_ID      = 2025-236D
CENTER_NAME    = EARTH
REF_FRAME      = TEME
TIME_SYSTEM    = UTC
MEAN_ELEMENT_THEORY = SGP/SGP4

EPOCH          = 2025-11-04T06:00:02.000160
MEAN_MOTION    = 15.74166890
ECCENTRICITY   = .00010993
INCLINATION    = 53.1581
RA_OF_ASC_NODE = 331.2011
ARG_OF_PERICENTER = 85.5513
MEAN_ANOMALY   = 288.8591

EPHEMERIS_TYPE = 0
CLASSIFICATION_TYPE = U
NORAD_CAT_ID   = 66089
ELEMENT_SET_NO = 999
REV_AT_EPOCH   = 369
BSTAR          = .65456359E-4
MEAN_MOTION_DOT = .8958E-4
MEAN_MOTION_DDOT = 0

CCSDS_OMM_VERS = 2.0
CREATION_DATE  = 
ORIGINATOR     = 

OBJECT_NAME    = STARLINK-35570
OBJECT_ID      = 2025-236E
CENTER_NAME    = EARTH
REF_FRAME      = TEME
TIME_SYSTEM    = UTC
MEAN_ELEMENT_THEORY = SGP/SGP4

EPOCH          = 2025-11-04T06:00:02.000160
MEAN_MOTION    = 15.74150079
ECCENTRICITY   = .00007684
INCLINATION    = 53.1581
RA_OF_ASC_NODE = 331.1938
ARG_OF_PERICENTER = 92.5460
MEAN_ANOMALY   = 285.7039

EPHEMERIS_TYPE = 0
CLASSIFICATION_TYPE = U
NORAD_CAT_ID   = 66090
ELEMENT_SET_NO = 999
REV_AT_EPOCH   = 369
BSTAR          = .21954642E-3
MEAN_MOTION_DOT = .3159E-3
MEAN_MOTION_DDOT = 0

CCSDS_OMM_VERS = 2.0
CREATION_DATE  = 
ORIGINATOR     = 

OBJECT_NAME    = STARLINK-35532
OBJECT_ID      = 2025-236F
CENTER_NAME    = EARTH
REF_FRAME      = TEME
TIME_SYSTEM    = UTC
MEAN_ELEMENT_THEORY = SGP/SGP4

EPOCH          = 2025-11-04T06:00:02.000160
MEAN_MOTION    = 15.74207813
ECCENTRICITY   = .00011782
INCLINATION    = 53.1582
RA_OF_ASC_NODE = 331.1895
ARG_OF_PERICENTER = 99.9189
MEAN_ANOMALY   = 280.2378

EPHEMERIS_TYPE = 0
CLASSIFICATION_TYPE = U
NORAD_CAT_ID   = 66091
ELEMENT_SET_NO = 999
REV_AT_EPOCH   = 369
BSTAR          = -.57159852E-3
MEAN_MOTION_DOT = -.83584E-3
MEAN_MOTION_DDOT = 0

CCSDS_OMM_VERS = 2.0
CREATION_DATE  = 
ORIGINATOR     = 

OBJECT_NAME    = STARLINK-35527
OBJECT_ID      = 2025-236G
CENTER_NAME    = EARTH
REF_FRAME      = TEME
TIME_SYSTEM    = UTC
MEAN_ELEMENT_THEORY = SGP/SGP4

EPOCH          = 2025-11-04T06:00:02.000160
MEAN_MOTION    = 15.74189293
ECCENTRICITY   = .00010049
INCLINATION    = 53.1579
RA_OF_ASC_NODE = 331.1850
ARG_OF_PERICENTER = 86.1778
MEAN_ANOMALY   = 295.9049

EPHEMERIS_TYPE = 0
CLASSIFICATION_TYPE = U
NORAD_CAT_ID   = 66092
ELEMENT_SET_NO = 999
REV_AT_EPOCH   = 369
BSTAR          = -.45078537E-3
MEAN_MOTION_DOT = -.66132E-3
MEAN_MOTION_DDOT = 0

CCSDS_OMM_VERS = 2.0
CREATION_DATE  = 
ORIGINATOR     = 

OBJECT_NAME    = STARLINK-35500
OBJECT_ID      = 2025-236H
CENTER_NAME    = EARTH
REF_FRAME      = TEME
TIME_SYSTEM    = UTC
MEAN_ELEMENT_THEORY = SGP/SGP4

EPOCH          = 2025-11-04T06:00:02.000160
MEAN_MOTION    = 15.74206947
ECCENTRICITY   = .00012577
INCLINATION    = 53.1580
RA_OF_ASC_NODE = 331.1812
ARG_OF_PERICENTER = 86.5105
MEAN_ANOMALY   = 297.4781

EPHEMERIS_TYPE = 0
CLASSIFICATION_TYPE = U
NORAD_CAT_ID   = 66093
ELEMENT_SET_NO = 999
REV_AT_EPOCH   = 369
BSTAR          = -.49996458E-3
MEAN_MOTION_DOT = -.73275E-3
MEAN_MOTION_DDOT = 0

CCSDS_OMM_VERS = 2.0
CREATION_DATE  = 
ORIGINATOR     = 

OBJECT_NAME    = STARLINK-35528
OBJECT_ID      = 2025-236J
CENTER_NAME    = EARTH
REF_FRAME      = TEME
TIME_SYSTEM    = UTC
MEAN_ELEMENT_THEORY = SGP/SGP4

EPOCH          = 2025-11-04T06:00:02.000160
MEAN_MOTION    = 15.74161035
ECCENTRICITY   = .00007874
INCLINATION    = 53.1579
RA_OF_ASC_NODE = 331.1771
ARG_OF_PERICENTER = 95.3299
MEAN_ANOMALY   = 290.5881

EPHEMERIS_TYPE = 0
CLASSIFICATION_TYPE = U
NORAD_CAT_ID   = 66094
ELEMENT_SET_NO = 999
REV_AT_EPOCH   = 369
BSTAR          = .77982715E-4
MEAN_MOTION_DOT = .10793E-3
MEAN_MOTION_DDOT = 0

CCSDS_OMM_VERS = 2.0
CREATION_DATE  = 
ORIGINATOR     = 

OBJECT_NAME    = STARLINK-35559
OBJECT_ID      = 2025-236K
CENTER_NAME    = EARTH
REF_FRAME      = TEME
TIME_SYSTEM    = UTC
MEAN_ELEMENT_THEORY = SGP/SGP4

EPOCH          = 2025-11-04T06:00:02.000160
MEAN_MOTION    = 15.74160690
ECCENTRICITY   = .00009557
INCLINATION    = 53.1580
RA_OF_ASC_NODE = 331.1733
ARG_OF_PERICENTER = 104.9731
MEAN_ANOMALY   = 282.8640

EPHEMERIS_TYPE = 0
CLASSIFICATION_TYPE = U
NORAD_CAT_ID   = 66095
ELEMENT_SET_NO = 999
REV_AT_EPOCH   = 369
BSTAR          = .7053138E-4
MEAN_MOTION_DOT = .97E-4
MEAN_MOTION_DDOT = 0

CCSDS_OMM_VERS = 2.0
CREATION_DATE  = 
ORIGINATOR     = 

OBJECT_NAME    = STARLINK-34386
OBJECT_ID      = 2025-236L
CENTER_NAME    = EARTH
REF_FRAME      = TEME
TIME_SYSTEM    = UTC
MEAN_ELEMENT_THEORY = SGP/SGP4

EPOCH          = 2025-11-04T06:00:02.000160
MEAN_MOTION    = 15.74179121
ECCENTRICITY   = .00008179
INCLINATION    = 53.1579
RA_OF_ASC_NODE = 331.1688
ARG_OF_PERICENTER = 86.6165
MEAN_ANOMALY   = 303.1133

EPHEMERIS_TYPE = 0
CLASSIFICATION_TYPE = U
NORAD_CAT_ID   = 66096
ELEMENT_SET_NO = 999
REV_AT_EPOCH   = 369
BSTAR          = -.26524601E-4
MEAN_MOTION_DOT = -.4509E-4
MEAN_MOTION_DDOT = 0

CCSDS_OMM_VERS = 2.0
CREATION_DATE  = 
ORIGINATOR     = 

OBJECT_NAME    = STARLINK-35613
OBJECT_ID      = 2025-236M
CENTER_NAME    = EARTH
REF_FRAME      = TEME
TIME_SYSTEM    = UTC
MEAN_ELEMENT_THEORY = SGP/SGP4

EPOCH          = 2025-11-04T06:00:02.000160
MEAN_MOTION    = 15.74152154
ECCENTRICITY   = .00009152
INCLINATION    = 53.1580
RA_OF_ASC_NODE = 331.1609
ARG_OF_PERICENTER = 95.2263
MEAN_ANOMALY   = 298.3589

EPHEMERIS_TYPE = 0
CLASSIFICATION_TYPE = U
NORAD_CAT_ID   = 66097
ELEMENT_SET_NO = 999
REV_AT_EPOCH   = 369
BSTAR          = .14232309E-3
MEAN_MOTION_DOT = .20231E-3
MEAN_MOTION_DDOT = 0

CCSDS_OMM_VERS = 2.0
CREATION_DATE  = 
ORIGINATOR     = 

OBJECT_NAME    = STARLINK-34206
OBJECT_ID      = 2025-236N
CENTER_NAME    = EARTH
REF_FRAME      = TEME
TIME_SYSTEM    = UTC
MEAN_ELEMENT_THEORY = SGP/SGP4

EPOCH          = 2025-11-04T06:00:02.000160
MEAN_MOTION    = 15.74172064
ECCENTRICITY   = .00010335
INCLINATION    = 53.1580
RA_OF_ASC_NODE = 331.1568
ARG_OF_PERICENTER = 109.2899
MEAN_ANOMALY   = 286.2110

EPHEMERIS_TYPE = 0
CLASSIFICATION_TYPE = U
NORAD_CAT_ID   = 66098
ELEMENT_SET_NO = 999
REV_AT_EPOCH   = 368
BSTAR          = -.3474755E-3
MEAN_MOTION_DOT = -.51172E-3
MEAN_MOTION_DDOT = 0

