STARLINK-35563          
1 66087U 25236B   25308.25002315  .00017870  00000+0  12622-3 0  9999
2 66087  53.1581 331.2049 0001042  79.8682 292.6314 15.74157051  3636
STARLINK-35461          
1 66088U 25236C   25308.25002315 -.00079514  00000+0 -54351-3 0  9990
2 66088  53.1581 331.1970 0001007 101.9905 274.3351 15.74199019  3633
STARLINK-35571          
1 66089U 25236D   25308.25002315  .00008958  00000+0  65456-4 0  9992
2 66089  53.1581 331.2011 0001099  85.5513 288.8591 15.74166890  3697
STARLINK-35570          
1 66090U 25236E   25308.25002315  .00031590  00000+0  21955-3 0  9997
2 66090  53.1581 331.1938 0000768  92.5460 285.7039 15.74150079  3692
STARLINK-35532          
1 66091U 25236F   25308.25002315 -.00083584  00000+0 -57160-3 0  9997
2 66091  53.1582 331.1895 0001178  99.9189 280.2378 15.74207813  3696
STARLINK-35527          
1 66092U 25236G   25308.25002315 -.00066132  00000+0 -45079-3 0  9994
2 66092  53.1579 331.1850 0001004  86.1778 295.9049 15.74189293  3693
STARLINK-35500          
1 66093U 25236H   25308.25002315 -.00073275  00000+0 -49996-3 0  9993
2 66093  53.1580 331.1812 0001257  86.5105 297.4781 15.74206947  3698
STARLINK-35528          
1 66094U 25236J   25308.25002315  .00010793  00000+0  77983-4 0  9996
2 66094  53.1579 331.1771 0000787  95.3299 290.5881 15.74161035  3693
STARLINK-35559          
1 66095U 25236K   25308.25002315  .00009700  00000+0  70531-4 0  9995
2 66095  53.1580 331.1733 0000955 104.9731 282.8640 15.74160690  3692
STARLINK-34386          
1 66096U 25236L   25308.25002315 -.00004509  00000+0 -26525-4 0  9994
2 66096  53.1579 331.1688 0000817  86.6165 303.1133 15.74179121  3697
STARLINK-35613          
1 66097U 25236M   25308.25002315  .00020231  00000+0  14232-3 0  9994
2 66097  53.1580 331.1609 0000915  95.2263 298.3589 15.74152154  3694
STARLINK-34206          
1 66098U 25236N   25308.25002315 -.00051172  00000+0 -34748-3 0  9999
2 66098  53.1580 331.1568 0001033 109.2899 286.2110 15.74172064  3689
